GPS BIIR-08             
1 27663U 03005A   26115.26977762 -.00000045  00000+0  00000+0 0  9991
2 27663  54.8929 217.0709 0148200  52.9584 317.9588  2.00563368170256
GPS BIIR-11             
1 28190U 04009A   26115.54239911 -.00000037  00000+0  00000+0 0  9991
2 28190  54.8745 277.8127 0113634 170.7965 191.3848  2.00556347161893
GPS BIIR-13             
1 28474U 04045A   26114.75287337 -.00000070  00000+0  00000+0 0  9990
2 28474  55.1665 327.0483 0170086 314.9297 262.4767  2.00553350157357
GPS BIIR-14M            
1 28874U 05038A   26115.76711347 -.00000040  00000+0  00000+0 0  9999
2 28874  54.9222 275.2914 0127786 295.8447 254.9889  2.00569269150780
METEOSAT-9 (MSG-2)      
1 28912U 05049B   26114.93441968  .00000114  00000+0  00000+0 0  9992
2 28912   9.2443  54.6814 0000432 351.2709 189.0341  1.00273882  6463
GPS BIIR-16M            
1 29601U 06052A   26114.57003035 -.00000038  00000+0  00000+0 0  9998
2 29601  54.9441 216.1310 0086480  90.2480 270.7556  2.00555028142332
GPS BIIR-17M            
1 32260U 07047A   26113.87791041  .00000015  00000+0  00000+0 0  9995
2 32260  54.0564  82.3027 0164706  86.4532 275.4105  2.00557941135728
GPS BIIR-18M            
1 32384U 07062A   26115.44177867 -.00000036  00000+0  00000+0 0  9992
2 32384  55.0752 276.2714 0034544 162.3254  13.9135  2.00556762134450
GOES 14                 
1 35491U 09033A   26115.87683596 -.00000057  00000+0  00000+0 0  9995
2 35491   1.5570  83.6370 0001710 311.6603 305.3506  1.00116377  6068
GOES 15                 
1 36411U 10008A   26115.79351898  .00000010  00000+0  00000+0 0  9998
2 36411   1.1398  83.8010 0003880  23.6059  95.3210  1.00272333 59110
GSAT0101 (GALILEO-PFM)  
1 37846U 11060A   26113.29606242 -.00000087  00000+0  00000+0 0  9994
2 37846  57.0105 343.2506 0003772  24.6527 335.4053  1.70475605 90182
GSAT0102 (GALILEO-FM2)  
1 37847U 11060B   26115.28097147 -.00000090  00000+0  00000+0 0  9998
2 37847  57.0110 343.1972 0004719   9.0108 174.7955  1.70475917 90225
LUCH 5A                 
1 37951U 11074B   26115.77731796 -.00000057  00000+0  00000+0 0  9991
2 37951   8.6237  74.5624 0002714 302.6373 283.3454  1.00272711 52523
METEOSAT-10 (MSG-3)     
1 38552U 12035B   26115.70968660 -.00000017  00000+0  00000+0 0  9998
2 38552   4.5500  61.2406 0002076 310.7742  97.3874  1.00267683 50339
SARSAT 13 (METOP-B)     
1 38771U 12049A   26115.81831497  .00000095  00000+0  63134-4 0  9992
2 38771  98.6550 168.3510 0003382 125.2958 234.8537 14.21432951705829
GPS BIIF-3              
1 38833U 12053A   26113.97246792  .00000040  00000+0  00000+0 0  9997
2 38833  53.5743 145.8203 0177937  65.1328 296.7656  2.00566553 98354
GSAT0103 (GALILEO-FM3)  
1 38857U 12055A   26115.09622635  .00000047  00000+0  00000+0 0  9991
2 38857  55.7743 103.0007 0005916 295.5097  64.4243  1.70473359 84108
